{"type": "FeatureCollection", "features": [ {"type": "Feature", "properties": {"norad_id": 42741, "name": "EUTELSAT 172B", "group": "eutelsat", "lat": -0.0035559446687542743, "lon": -145.57127080884902, "alt_km": 35786.59120002422, "timestamp": "2025-12-09T21:34:11.078527+00:00", "meta": {"OBJECT_NAME": "EUTELSAT 172B", "OBJECT_ID": "2017-029B", "EPOCH": "2025-12-09T12:37:00.989760", "MEAN_MOTION": 1.00269936, "ECCENTRICITY": 1.692e-05, "INCLINATION": 0.012, "RA_OF_ASC_NODE": 91.0922, "ARG_OF_PERICENTER": 213.9404, "MEAN_ANOMALY": 134.7439, "EPHEMERIS_TYPE": 0, "CLASSIFICATION_TYPE": "U", "NORAD_CAT_ID": 42741, "ELEMENT_SET_NO": 999, "REV_AT_EPOCH": 3182, "BSTAR": 0, "MEAN_MOTION_DOT": -4e-08, "MEAN_MOTION_DDOT": 0}, "tle": {"line1": "1 42741U 17029B   25343.52570590 -.00000004  00000+0  00000+0 0  9990", "line2": "2 42741   0.0120  91.0922 0000169 213.9404 134.7439  1.00269936 31826"}}, "geometry": {"type": "Point", "coordinates": [-145.57127080884902, -0.0035559446687542743]}}, {"type": "Feature", "properties": {"norad_id": 44334, "name": "EUTELSAT 7C", "group": "eutelsat", "lat": -0.03476107948902398, "lon": 49.41486529392797, "alt_km": 35800.26726942318, "timestamp": "2025-12-09T21:34:11.078538+00:00", "meta": {"OBJECT_NAME": "EUTELSAT 7C", "OBJECT_ID": "2019-034B", "EPOCH": "2025-12-09T13:36:22.491072", "MEAN_MOTION": 1.00270697, "ECCENTRICITY": 0.00033717, "INCLINATION": 0.0732, "RA_OF_ASC_NODE": 179.2397, "ARG_OF_PERICENTER": 63.0249, "MEAN_ANOMALY": 47.3664, "EPHEMERIS_TYPE": 0, "CLASSIFICATION_TYPE": "U", "NORAD_CAT_ID": 44334, "ELEMENT_SET_NO": 999, "REV_AT_EPOCH": 493, "BSTAR": 0, "MEAN_MOTION_DOT": 5e-07, "MEAN_MOTION_DDOT": 0}, "tle": {"line1": "1 44334U 19034B   25343.56692698  .00000050  00000+0  00000+0 0  9996", "line2": "2 44334   0.0732 179.2397 0003371  63.0249  47.3664  1.00270697  4936"}}, "geometry": {"type": "Point", "coordinates": [49.41486529392797, -0.03476107948902398]}}, {"type": "Feature", "properties": {"norad_id": 44624, "name": "EUTELSAT 5 WEST B", "group": "eutelsat", "lat": 0.06969541929046925, "lon": 37.45133447010072, "alt_km": 35797.37585776929, "timestamp": "2025-12-09T21:34:11.078550+00:00", "meta": {"OBJECT_NAME": "EUTELSAT 5 WEST B", "OBJECT_ID": "2019-067A", "EPOCH": "2025-12-09T04:59:20.915808", "MEAN_MOTION": 1.00271075, "ECCENTRICITY": 0.0003516, "INCLINATION": 0.0644, "RA_OF_ASC_NODE": 341.3724, "ARG_OF_PERICENTER": 277.7318, "MEAN_ANOMALY": 248.9352, "EPHEMERIS_TYPE": 0, "CLASSIFICATION_TYPE": "U", "NORAD_CAT_ID": 44624, "ELEMENT_SET_NO": 999, "REV_AT_EPOCH": 2253, "BSTAR": 0, "MEAN_MOTION_DOT": -4e-07, "MEAN_MOTION_DDOT": 0}, "tle": {"line1": "1 44624U 19067A   25343.20788097 -.00000040  00000+0  00000+0 0  9994", "line2": "2 44624   0.0644 341.3724 0003516 277.7318 248.9352  1.00271075 22538"}}, "geometry": {"type": "Point", "coordinates": [37.45133447010072, 0.06969541929046925]}}, {"type": "Feature", "properties": {"norad_id": 45027, "name": "EUTELSAT KONNECT", "group": "eutelsat", "lat": -0.029972064620668044, "lon": 49.629250311624666, "alt_km": 35791.07393667096, "timestamp": "2025-12-09T21:34:11.078562+00:00", "meta": {"OBJECT_NAME": "EUTELSAT KONNECT", "OBJECT_ID": "2020-005B", "EPOCH": "2025-12-09T13:36:22.491072", "MEAN_MOTION": 1.00268326, "ECCENTRICITY": 0.00017241, "INCLINATION": 0.0708, "RA_OF_ASC_NODE": 96.4428, "ARG_OF_PERICENTER": 189.6907, "MEAN_ANOMALY": 3.7069, "EPHEMERIS_TYPE": 0, "CLASSIFICATION_TYPE": "U", "NORAD_CAT_ID": 45027, "ELEMENT_SET_NO": 999, "REV_AT_EPOCH": 2243, "BSTAR": 0, "MEAN_MOTION_DOT": 5.1e-07, "MEAN_MOTION_DDOT": 0}, "tle": {"line1": "1 45027U 20005B   25343.56692698  .00000051  00000+0  00000+0 0  9997", "line2": "2 45027   0.0708  96.4428 0001724 189.6907   3.7069  1.00268326 22436"}}, "geometry": {"type": "Point", "coordinates": [49.629250311624666, -0.029972064620668044]}}, {"type": "Feature", "properties": {"norad_id": 49056, "name": "EUTELSAT QUANTUM", "group": "eutelsat", "lat": 0.0320019499863622, "lon": 90.12419775797004, "alt_km": 35802.106043005246, "timestamp": "2025-12-09T21:34:11.078573+00:00", "meta": {"OBJECT_NAME": "EUTELSAT QUANTUM", "OBJECT_ID": "2021-069B", "EPOCH": "2025-12-09T13:47:58.879392", "MEAN_MOTION": 1.00270948, "ECCENTRICITY": 0.00037417, "INCLINATION": 0.0145, "RA_OF_ASC_NODE": 12.6689, "ARG_OF_PERICENTER": 259.0075, "MEAN_ANOMALY": 61.5808, "EPHEMERIS_TYPE": 0, "CLASSIFICATION_TYPE": "U", "NORAD_CAT_ID": 49056, "ELEMENT_SET_NO": 999, "REV_AT_EPOCH": 1602, "BSTAR": 0, "MEAN_MOTION_DOT": 1.28e-06, "MEAN_MOTION_DDOT": 0}, "tle": {"line1": "1 49056U 21069B   25343.57498703  .00000128  00000+0  00000+0 0  9991", "line2": "2 49056   0.0145  12.6689 0003741 259.0075  61.5808  1.00270948 16029"}}, "geometry": {"type": "Point", "coordinates": [90.12419775797004, 0.0320019499863622]}}, {"type": "Feature", "properties": {"norad_id": 53765, "name": "EUTELSAT KONNECT VHTS", "group": "eutelsat", "lat": -0.03153141005264772, "lon": 45.138292737910525, "alt_km": 35797.039385888784, "timestamp": "2025-12-09T21:34:11.078584+00:00", "meta": {"OBJECT_NAME": "EUTELSAT KONNECT VHTS", "OBJECT_ID": "2022-110A", "EPOCH": "2025-12-09T13:35:00.121632", "MEAN_MOTION": 1.00270861, "ECCENTRICITY": 0.00026005, "INCLINATION": 0.0638, "RA_OF_ASC_NODE": 102.0206, "ARG_OF_PERICENTER": 136.0408, "MEAN_ANOMALY": 46.9506, "EPHEMERIS_TYPE": 0, "CLASSIFICATION_TYPE": "U", "NORAD_CAT_ID": 53765, "ELEMENT_SET_NO": 999, "REV_AT_EPOCH": 492, "BSTAR": 0, "MEAN_MOTION_DOT": 1.9e-07, "MEAN_MOTION_DDOT": 0}, "tle": {"line1": "1 53765U 22110A   25343.56597363  .00000019  00000+0  00000+0 0  9991", "line2": "2 53765   0.0638 102.0206 0002600 136.0408  46.9506  1.00270861  4926"}}, "geometry": {"type": "Point", "coordinates": [45.138292737910525, -0.03153141005264772]}}, {"type": "Feature", "properties": {"norad_id": 54048, "name": "EUTELSAT HOTBIRD 13F", "group": "eutelsat", "lat": 0.056148359901533294, "lon": 55.465291116830365, "alt_km": 35781.82987572954, "timestamp": "2025-12-09T21:34:11.078596+00:00", "meta": {"OBJECT_NAME": "EUTELSAT HOTBIRD 13F", "OBJECT_ID": "2022-134A", "EPOCH": "2025-12-09T01:39:02.259360", "MEAN_MOTION": 1.00271707, "ECCENTRICITY": 0.0002159, "INCLINATION": 0.0489, "RA_OF_ASC_NODE": 292.5872, "ARG_OF_PERICENTER": 60.3329, "MEAN_ANOMALY": 122.9214, "EPHEMERIS_TYPE": 0, "CLASSIFICATION_TYPE": "U", "NORAD_CAT_ID": 54048, "ELEMENT_SET_NO": 999, "REV_AT_EPOCH": 1147, "BSTAR": 0, "MEAN_MOTION_DOT": 8.9e-07, "MEAN_MOTION_DDOT": 0}, "tle": {"line1": "1 54048U 22134A   25343.06877615  .00000089  00000+0  00000+0 0  9995", "line2": "2 54048   0.0489 292.5872 0002159  60.3329 122.9214  1.00271707 11478"}}, "geometry": {"type": "Point", "coordinates": [55.465291116830365, 0.056148359901533294]}}, {"type": "Feature", "properties": {"norad_id": 54225, "name": "EUTELSAT HOTBIRD 13G", "group": "eutelsat", "lat": 0.020649552018356693, "lon": 55.39903328008375, "alt_km": 35791.37969011706, "timestamp": "2025-12-09T21:34:11.078608+00:00", "meta": {"OBJECT_NAME": "EUTELSAT HOTBIRD 13G", "OBJECT_ID": "2022-146A", "EPOCH": "2025-12-09T00:10:38.547840", "MEAN_MOTION": 1.00269396, "ECCENTRICITY": 0.00016652, "INCLINATION": 0.0487, "RA_OF_ASC_NODE": 236.9876, "ARG_OF_PERICENTER": 310.6292, "MEAN_ANOMALY": 266.0423, "EPHEMERIS_TYPE": 0, "CLASSIFICATION_TYPE": "U", "NORAD_CAT_ID": 54225, "ELEMENT_SET_NO": 999, "REV_AT_EPOCH": 555, "BSTAR": 0, "MEAN_MOTION_DOT": 8.9e-07, "MEAN_MOTION_DDOT": 0}, "tle": {"line1": "1 54225U 22146A   25343.00739060  .00000089  00000+0  00000+0 0  9990", "line2": "2 54225   0.0487 236.9876 0001665 310.6292 266.0423  1.00269396  5555"}}, "geometry": {"type": "Point", "coordinates": [55.39903328008375, 0.020649552018356693]}}, {"type": "Feature", "properties": {"norad_id": 54259, "name": "EUTELSAT 10B", "group": "eutelsat", "lat": -0.02153000479633039, "lon": 52.37878261112746, "alt_km": 35791.087441478754, "timestamp": "2025-12-09T21:34:11.078620+00:00", "meta": {"OBJECT_NAME": "EUTELSAT 10B", "OBJECT_ID": "2022-157A", "EPOCH": "2025-12-09T13:37:14.907360", "MEAN_MOTION": 1.0026671, "ECCENTRICITY": 0.00014734, "INCLINATION": 0.0618, "RA_OF_ASC_NODE": 98.0334, "ARG_OF_PERICENTER": 79.9277, "MEAN_ANOMALY": 114.8799, "EPHEMERIS_TYPE": 0, "CLASSIFICATION_TYPE": "U", "NORAD_CAT_ID": 54259, "ELEMENT_SET_NO": 999, "REV_AT_EPOCH": 1112, "BSTAR": 0, "MEAN_MOTION_DOT": 7e-07, "MEAN_MOTION_DDOT": 0}, "tle": {"line1": "1 54259U 22157A   25343.56753365  .00000070  00000+0  00000+0 0  9994", "line2": "2 54259   0.0618  98.0334 0001473  79.9277 114.8799  1.00266710 11122"}}, "geometry": {"type": "Point", "coordinates": [52.37878261112746, -0.02153000479633039]}}, {"type": "Feature", "properties": {"norad_id": 59346, "name": "EUTELSAT 36D", "group": "eutelsat", "lat": 0.03713071665227898, "lon": 78.28749271648732, "alt_km": 35787.51485360388, "timestamp": "2025-12-09T21:34:11.078631+00:00", "meta": {"OBJECT_NAME": "EUTELSAT 36D", "OBJECT_ID": "2024-059A", "EPOCH": "2025-12-09T13:44:36.701664", "MEAN_MOTION": 1.00269475, "ECCENTRICITY": 4.474e-05, "INCLINATION": 0.0173, "RA_OF_ASC_NODE": 350.0588, "ARG_OF_PERICENTER": 332.1632, "MEAN_ANOMALY": 358.3521, "EPHEMERIS_TYPE": 0, "CLASSIFICATION_TYPE": "U", "NORAD_CAT_ID": 59346, "ELEMENT_SET_NO": 999, "REV_AT_EPOCH": 624, "BSTAR": 0, "MEAN_MOTION_DOT": 1.58e-06, "MEAN_MOTION_DDOT": 0}, "tle": {"line1": "1 59346U 24059A   25343.57264701  .00000158  00000+0  00000+0 0  9998", "line2": "2 59346   0.0173 350.0588 0000447 332.1632 358.3521  1.00269475  6247"}}, "geometry": {"type": "Point", "coordinates": [78.28749271648732, 0.03713071665227898]}}]}